{
    "links": {
        "self": "http://www.neowsapp.com/rest/v1/neo/3092387?api_key=iIulBulltgU6a56xZRHN4H3l9WmuAYTsLGpBGhQ2"
    },
    "id": "3092387",
    "neo_reference_id": "3092387",
    "name": "(2001 TE45)",
    "designation": "2001 TE45",
    "nasa_jpl_url": "http://ssd.jpl.nasa.gov/sbdb.cgi?sstr=3092387",
    "absolute_magnitude_h": 22.9,
    "estimated_diameter": {
        "kilometers": {
            "estimated_diameter_min": 0.0699125232,
            "estimated_diameter_max": 0.1563291544
        },
        "meters": {
            "estimated_diameter_min": 69.9125232246,
            "estimated_diameter_max": 156.3291544087
        },
        "miles": {
            "estimated_diameter_min": 0.0434416145,
            "estimated_diameter_max": 0.097138403
        },
        "feet": {
            "estimated_diameter_min": 229.3718026961,
            "estimated_diameter_max": 512.8909429502
        }
    },
    "is_potentially_hazardous_asteroid": false,
    "close_approach_data": [
        {
            "close_approach_date": "2001-10-06",
            "close_approach_date_full": "2001-Oct-06 13:17",
            "epoch_date_close_approach": 1002374220000,
            "relative_velocity": {
                "kilometers_per_second": "12.0798980422",
                "kilometers_per_hour": "43487.6329520867",
                "miles_per_hour": "27021.5239307007"
            },
            "miss_distance": {
                "astronomical": "0.0971840009",
                "lunar": "37.8045763501",
                "kilometers": "14538519.532718083",
                "miles": "9033817.1339642254"
            },
            "orbiting_body": "Earth"
        }
    ],
    "orbital_data": {
        "orbit_id": "10",
        "orbit_determination_date": "2017-04-06 09:15:59",
        "first_observation_date": "2001-10-15",
        "last_observation_date": "2001-10-21",
        "data_arc_in_days": 6,
        "observations_used": 26,
        "orbit_uncertainty": "9",
        "minimum_orbit_intersection": ".0971115",
        "jupiter_tisserand_invariant": "3.884",
        "epoch_osculation": "2452200.5",
        "eccentricity": ".4639442227086913",
        "semi_major_axis": "1.811432025225282",
        "inclination": "14.63385612113709",
        "ascending_node_longitude": "208.8743310652648",
        "orbital_period": "890.4950080882709",
        "perihelion_distance": ".9710286022925083",
        "perihelion_argument": "120.1955647146775",
        "aphelion_distance": "2.651835448158057",
        "perihelion_time": "2452151.719004477569",
        "mean_anomaly": "19.72067022113435",
        "mean_motion": ".4042695318111371",
        "equinox": "J2000",
        "orbit_class": {
            "orbit_class_type": "APO",
            "orbit_class_description": "Near-Earth asteroid orbits which cross the Earth’s orbit similar to that of 1862 Apollo",
            "orbit_class_range": "a (semi-major axis) > 1.0 AU; q (perihelion) < 1.017 AU"
        }
    },
    "is_sentry_object": false
}